{"fetched_at":"2026-07-06T18:35:25.055Z","source":"https://celestrak.org/NORAD/elements/gp.php?NAME=BRO&FORMAT=JSON","constellation":"unseenlabs","records":[{"OBJECT_NAME":"BRO-1","OBJECT_ID":"2019-054A","EPOCH":"2026-07-05T23:41:36.536352","CLASSIFICATION_TYPE":"U","MEAN_MOTION":16.03336915,"ECCENTRICITY":0.00089605,"INCLINATION":44.9858,"RA_OF_ASC_NODE":175.6611,"ARG_OF_PERICENTER":98.9862,"MEAN_ANOMALY":261.2065,"EPHEMERIS_TYPE":0,"NORAD_CAT_ID":44495,"ELEMENT_SET_NO":999,"REV_AT_EPOCH":38274,"BSTAR":0.00089216321,"MEAN_MOTION_DOT":0.00576627,"MEAN_MOTION_DDOT":0.00016249551},{"OBJECT_NAME":"BRO-5","OBJECT_ID":"2022-002CF","EPOCH":"2026-07-06T06:10:13.367424","CLASSIFICATION_TYPE":"U","MEAN_MOTION":15.48497503,"ECCENTRICITY":0.00044414,"INCLINATION":97.298,"RA_OF_ASC_NODE":261.1078,"ARG_OF_PERICENTER":238.3322,"MEAN_ANOMALY":121.7496,"EPHEMERIS_TYPE":0,"NORAD_CAT_ID":51061,"ELEMENT_SET_NO":999,"REV_AT_EPOCH":24920,"BSTAR":0.0005175879,"MEAN_MOTION_DOT":0.00027494,"MEAN_MOTION_DDOT":0},{"OBJECT_NAME":"BRO-6","OBJECT_ID":"2022-047AE","EPOCH":"2026-07-06T07:07:22.052928","CLASSIFICATION_TYPE":"U","MEAN_MOTION":15.52025926,"ECCENTRICITY":0.00033696,"INCLINATION":97.339,"RA_OF_ASC_NODE":278.7364,"ARG_OF_PERICENTER":358.4917,"MEAN_ANOMALY":1.6325,"EPHEMERIS_TYPE":0,"NORAD_CAT_ID":52422,"ELEMENT_SET_NO":999,"REV_AT_EPOCH":23411,"BSTAR":0.00068324655,"MEAN_MOTION_DOT":0.00041204,"MEAN_MOTION_DDOT":0},{"OBJECT_NAME":"BRO-8","OBJECT_ID":"2023-001C","EPOCH":"2026-07-06T06:59:12.278976","CLASSIFICATION_TYPE":"U","MEAN_MOTION":15.50326173,"ECCENTRICITY":0.00058136,"INCLINATION":97.3188,"RA_OF_ASC_NODE":252.7651,"ARG_OF_PERICENTER":68.9677,"MEAN_ANOMALY":291.2196,"EPHEMERIS_TYPE":0,"NORAD_CAT_ID":55011,"ELEMENT_SET_NO":999,"REV_AT_EPOCH":19516,"BSTAR":0.00057300235,"MEAN_MOTION_DOT":0.00032494,"MEAN_MOTION_DDOT":0},{"OBJECT_NAME":"BRO-11","OBJECT_ID":"2023-174J","EPOCH":"2026-07-06T05:53:22.265376","CLASSIFICATION_TYPE":"U","MEAN_MOTION":15.27537355,"ECCENTRICITY":0.00116016,"INCLINATION":97.3896,"RA_OF_ASC_NODE":263.9161,"ARG_OF_PERICENTER":135.1194,"MEAN_ANOMALY":225.0985,"EPHEMERIS_TYPE":0,"NORAD_CAT_ID":58264,"ELEMENT_SET_NO":999,"REV_AT_EPOCH":14766,"BSTAR":0.00016225716,"MEAN_MOTION_DOT":0.00004303,"MEAN_MOTION_DDOT":0},{"OBJECT_NAME":"BRO-13","OBJECT_ID":"2024-043K","EPOCH":"2026-07-06T06:44:28.336992","CLASSIFICATION_TYPE":"U","MEAN_MOTION":14.96636934,"ECCENTRICITY":0.00078225,"INCLINATION":97.8517,"RA_OF_ASC_NODE":318.3627,"ARG_OF_PERICENTER":298.9972,"MEAN_ANOMALY":61.0464,"EPHEMERIS_TYPE":0,"NORAD_CAT_ID":59107,"ELEMENT_SET_NO":999,"REV_AT_EPOCH":12747,"BSTAR":0.000063020669,"MEAN_MOTION_DOT":0.00000659,"MEAN_MOTION_DDOT":0},{"OBJECT_NAME":"BRO-12","OBJECT_ID":"2024-043L","EPOCH":"2026-07-06T08:10:39.262944","CLASSIFICATION_TYPE":"U","MEAN_MOTION":14.96883861,"ECCENTRICITY":0.00070369,"INCLINATION":97.8507,"RA_OF_ASC_NODE":318.59,"ARG_OF_PERICENTER":294.1213,"MEAN_ANOMALY":65.9272,"EPHEMERIS_TYPE":0,"NORAD_CAT_ID":59108,"ELEMENT_SET_NO":999,"REV_AT_EPOCH":12750,"BSTAR":0.000050096301,"MEAN_MOTION_DOT":0.00000515,"MEAN_MOTION_DDOT":0},{"OBJECT_NAME":"BRO-14","OBJECT_ID":"2024-149CM","EPOCH":"2026-07-06T04:31:30.467712","CLASSIFICATION_TYPE":"U","MEAN_MOTION":14.96224256,"ECCENTRICITY":0.00075938,"INCLINATION":97.6868,"RA_OF_ASC_NODE":262.625,"ARG_OF_PERICENTER":43.5431,"MEAN_ANOMALY":316.6389,"EPHEMERIS_TYPE":0,"NORAD_CAT_ID":60551,"ELEMENT_SET_NO":999,"REV_AT_EPOCH":10283,"BSTAR":0.000079118457,"MEAN_MOTION_DOT":0.00000835,"MEAN_MOTION_DDOT":0},{"OBJECT_NAME":"BRO-15","OBJECT_ID":"2024-149CP","EPOCH":"2026-07-06T04:06:30.401280","CLASSIFICATION_TYPE":"U","MEAN_MOTION":14.96221173,"ECCENTRICITY":0.00088701,"INCLINATION":97.6806,"RA_OF_ASC_NODE":262.1932,"ARG_OF_PERICENTER":33.8759,"MEAN_ANOMALY":326.3027,"EPHEMERIS_TYPE":0,"NORAD_CAT_ID":60553,"ELEMENT_SET_NO":999,"REV_AT_EPOCH":10284,"BSTAR":0.00026762945,"MEAN_MOTION_DOT":0.00002964,"MEAN_MOTION_DDOT":0},{"OBJECT_NAME":"BRO-16","OBJECT_ID":"2025-009AX","EPOCH":"2026-07-06T04:27:07.320960","CLASSIFICATION_TYPE":"U","MEAN_MOTION":15.24084725,"ECCENTRICITY":0.00012606,"INCLINATION":97.4047,"RA_OF_ASC_NODE":267.437,"ARG_OF_PERICENTER":173.4096,"MEAN_ANOMALY":186.7158,"EPHEMERIS_TYPE":0,"NORAD_CAT_ID":62654,"ELEMENT_SET_NO":999,"REV_AT_EPOCH":8169,"BSTAR":0.00016786484,"MEAN_MOTION_DOT":0.00004005,"MEAN_MOTION_DDOT":0},{"OBJECT_NAME":"BRO-18","OBJECT_ID":"2025-135Y","EPOCH":"2026-07-06T07:36:18.145152","CLASSIFICATION_TYPE":"U","MEAN_MOTION":15.22123701,"ECCENTRICITY":0.00020796,"INCLINATION":97.4645,"RA_OF_ASC_NODE":302.2007,"ARG_OF_PERICENTER":126.1867,"MEAN_ANOMALY":233.9562,"EPHEMERIS_TYPE":0,"NORAD_CAT_ID":64550,"ELEMENT_SET_NO":999,"REV_AT_EPOCH":5778,"BSTAR":0.0001817972,"MEAN_MOTION_DOT":0.00004095,"MEAN_MOTION_DDOT":0},{"OBJECT_NAME":"BRO-17","OBJECT_ID":"2025-276G","EPOCH":"2026-07-06T03:59:16.035648","CLASSIFICATION_TYPE":"U","MEAN_MOTION":15.18120236,"ECCENTRICITY":0.00051897,"INCLINATION":97.4179,"RA_OF_ASC_NODE":259.9095,"ARG_OF_PERICENTER":301.6303,"MEAN_ANOMALY":58.4425,"EPHEMERIS_TYPE":0,"NORAD_CAT_ID":66672,"ELEMENT_SET_NO":999,"REV_AT_EPOCH":3327,"BSTAR":0.00017059143,"MEAN_MOTION_DOT":0.00003414,"MEAN_MOTION_DDOT":0},{"OBJECT_NAME":"BRO-20","OBJECT_ID":"2025-276J","EPOCH":"2026-07-06T03:26:11.492448","CLASSIFICATION_TYPE":"U","MEAN_MOTION":15.18289802,"ECCENTRICITY":0.00048428,"INCLINATION":97.4158,"RA_OF_ASC_NODE":259.8757,"ARG_OF_PERICENTER":305.3569,"MEAN_ANOMALY":54.7212,"EPHEMERIS_TYPE":0,"NORAD_CAT_ID":66674,"ELEMENT_SET_NO":999,"REV_AT_EPOCH":3327,"BSTAR":0.00018800806,"MEAN_MOTION_DOT":0.00003788,"MEAN_MOTION_DDOT":0},{"OBJECT_NAME":"BRO-19","OBJECT_ID":"2026-067G","EPOCH":"2026-07-05T19:48:23.334912","CLASSIFICATION_TYPE":"U","MEAN_MOTION":15.18945335,"ECCENTRICITY":0.00021506,"INCLINATION":97.4489,"RA_OF_ASC_NODE":145.016,"ARG_OF_PERICENTER":123.9279,"MEAN_ANOMALY":236.216,"EPHEMERIS_TYPE":0,"NORAD_CAT_ID":68422,"ELEMENT_SET_NO":999,"REV_AT_EPOCH":1477,"BSTAR":0.00020512452,"MEAN_MOTION_DOT":0.00004218,"MEAN_MOTION_DDOT":0},{"OBJECT_NAME":"BRO-21","OBJECT_ID":"2026-100AD","EPOCH":"2026-07-05T16:06:40.934304","CLASSIFICATION_TYPE":"U","MEAN_MOTION":15.21589295,"ECCENTRICITY":0.00078845,"INCLINATION":97.402,"RA_OF_ASC_NODE":84.2629,"ARG_OF_PERICENTER":4.1644,"MEAN_ANOMALY":355.9656,"EPHEMERIS_TYPE":0,"NORAD_CAT_ID":69007,"ELEMENT_SET_NO":999,"REV_AT_EPOCH":961,"BSTAR":0.00015232867,"MEAN_MOTION_DOT":0.00003369,"MEAN_MOTION_DDOT":0},{"OBJECT_NAME":"BRO-22","OBJECT_ID":"2026-132C","EPOCH":"2026-07-06T04:01:09.595488","CLASSIFICATION_TYPE":"U","MEAN_MOTION":14.99790953,"ECCENTRICITY":0.00156034,"INCLINATION":97.6835,"RA_OF_ASC_NODE":250.6047,"ARG_OF_PERICENTER":213.815,"MEAN_ANOMALY":146.2079,"EPHEMERIS_TYPE":0,"NORAD_CAT_ID":69504,"ELEMENT_SET_NO":999,"REV_AT_EPOCH":362,"BSTAR":0.00011274392,"MEAN_MOTION_DOT":0.00001338,"MEAN_MOTION_DDOT":0}]}
